{"type":"FeatureCollection","features":[{"type":"Feature","geometry":{"type":"Polygon","coordinates":[[[-4.16517,51.517647],[-3.332136,51.202812],[-2.652556,51.517647],[-2.411739,51.76546],[-2.339164,52.065049],[-2.350329,52.253415],[-2.285004,52.364639],[-2.31468,52.418968],[-2.396541,52.560405],[-2.401235,52.654482],[-2.389499,52.705712],[-2.483389,52.761143],[-2.588553,52.946803],[-2.655097,53.060926],[-2.808148,53.206645],[-2.878019,53.304179],[-2.974507,53.375694],[-3.037724,53.46294],[-3.543804,53.540072],[-4.941819,53.532343],[-5.670087,51.82562],[-5.396986,51.511058],[-4.16517,51.517647]]]},"properties":null}]}
